ORBCOMM FM20 [+]        
1 25416U 98046D   24114.81420358  .00002998  00000+0  10889-2 0  9993
2 25416  44.9953   4.1373 0000821 338.5577  21.5236 14.35136170344013
ORBCOMM FM16 [-]        
1 25417U 98046E   24114.92327579  .00004228  00000+0  14866-2 0  9994
2 25417  44.9957 359.5161 0004242 351.5255   8.5520 14.36092059343927
ORBCOMM FM15 [-]        
1 25418U 98046F   24114.80712064  .00003911  00000+0  13865-2 0  9995
2 25418  44.9985   4.0854 0003995 351.4404   8.6374 14.35820023343915
ORBCOMM FM14 [-]        
1 25419U 98046G   24114.78553248  .00003807  00000+0  13465-2 0  9990
2 25419  44.9976   3.3248 0002850 342.5286 128.1290 14.35979758343862
ORBCOMM FM13 [+]        
1 25420U 98046H   24114.80157642  .00003629  00000+0  13039-2 0  9992
2 25420  44.9984   8.0273 0004942 335.1894  24.8715 14.35277692342939
ORBCOMM FM21 [-]        
1 25475U 98053A   24114.89068177  .00003384  00000+0  12207-2 0  9997
2 25475  45.0070  91.8999 0002571 297.1175  62.9410 14.35219873336965
ORBCOMM FM22 [-]        
1 25476U 98053B   24114.87433836  .00003713  00000+0  13209-2 0  9993
2 25476  45.0068  89.3304 0004111 289.2701  70.7701 14.35733836336953
