<?xml version="1.0" encoding="UTF-8"?>
<ndm xmlns:xsi="http://www.w3.org/2001/XMLSchema-instance" xsi:noNamespaceSchemaLocation="https://sanaregistry.org/r/ndmxml_unqualified/ndmxml-2.0.0-master-2.0.xsd">
<omm id="CCSDS_OMM_VERS" version="2.0">
<header><CREATION_DATE/><ORIGINATOR/></header><body><segment><metadata><OBJECT_NAME>ORBCOMM FM20 [+]</OBJECT_NAME><OBJECT_ID>1998-046D</OBJECT_ID><CENTER_NAME>EARTH</CENTER_NAME><REF_FRAME>TEME</REF_FRAME><TIME_SYSTEM>UTC</TIME_SYSTEM><MEAN_ELEMENT_THEORY>SGP4</MEAN_ELEMENT_THEORY></metadata><data><meanElements><EPOCH>2024-04-23T19:32:27.189312</EPOCH><MEAN_MOTION>14.35136170</MEAN_MOTION><ECCENTRICITY>.0000821</ECCENTRICITY><INCLINATION>44.9953</INCLINATION><RA_OF_ASC_NODE>4.1373</RA_OF_ASC_NODE><ARG_OF_PERICENTER>338.5577</ARG_OF_PERICENTER><MEAN_ANOMALY>21.5236</MEAN_ANOMALY></meanElements><tleParameters><EPHEMERIS_TYPE>0</EPHEMERIS_TYPE><CLASSIFICATION_TYPE>U</CLASSIFICATION_TYPE><NORAD_CAT_ID>25416</NORAD_CAT_ID><ELEMENT_SET_NO>999</ELEMENT_SET_NO><REV_AT_EPOCH>34401</REV_AT_EPOCH><BSTAR>.10889E-2</BSTAR><MEAN_MOTION_DOT>.2998E-4</MEAN_MOTION_DOT><MEAN_MOTION_DDOT>0</MEAN_MOTION_DDOT></tleParameters></data></segment></body></omm>
<omm id="CCSDS_OMM_VERS" version="2.0">
<header><CREATION_DATE/><ORIGINATOR/></header><body><segment><metadata><OBJECT_NAME>ORBCOMM FM16 [-]</OBJECT_NAME><OBJECT_ID>1998-046E</OBJECT_ID><CENTER_NAME>EARTH</CENTER_NAME><REF_FRAME>TEME</REF_FRAME><TIME_SYSTEM>UTC</TIME_SYSTEM><MEAN_ELEMENT_THEORY>SGP4</MEAN_ELEMENT_THEORY></metadata><data><meanElements><EPOCH>2024-04-23T22:09:31.028256</EPOCH><MEAN_MOTION>14.36092059</MEAN_MOTION><ECCENTRICITY>.0004242</ECCENTRICITY><INCLINATION>44.9957</INCLINATION><RA_OF_ASC_NODE>359.5161</RA_OF_ASC_NODE><ARG_OF_PERICENTER>351.5255</ARG_OF_PERICENTER><MEAN_ANOMALY>8.5520</MEAN_ANOMALY></meanElements><tleParameters><EPHEMERIS_TYPE>0</EPHEMERIS_TYPE><CLASSIFICATION_TYPE>U</CLASSIFICATION_TYPE><NORAD_CAT_ID>25417</NORAD_CAT_ID><ELEMENT_SET_NO>999</ELEMENT_SET_NO><REV_AT_EPOCH>34392</REV_AT_EPOCH><BSTAR>.14866E-2</BSTAR><MEAN_MOTION_DOT>.4228E-4</MEAN_MOTION_DOT><MEAN_MOTION_DDOT>0</MEAN_MOTION_DDOT></tleParameters></data></segment></body></omm>
<omm id="CCSDS_OMM_VERS" version="2.0">
<header><CREATION_DATE/><ORIGINATOR/></header><body><segment><metadata><OBJECT_NAME>ORBCOMM FM15 [-]</OBJECT_NAME><OBJECT_ID>1998-046F</OBJECT_ID><CENTER_NAME>EARTH</CENTER_NAME><REF_FRAME>TEME</REF_FRAME><TIME_SYSTEM>UTC</TIME_SYSTEM><MEAN_ELEMENT_THEORY>SGP4</MEAN_ELEMENT_THEORY></metadata><data><meanElements><EPOCH>2024-04-23T19:22:15.223296</EPOCH><MEAN_MOTION>14.35820023</MEAN_MOTION><ECCENTRICITY>.0003995</ECCENTRICITY><INCLINATION>44.9985</INCLINATION><RA_OF_ASC_NODE>4.0854</RA_OF_ASC_NODE><ARG_OF_PERICENTER>351.4404</ARG_OF_PERICENTER><MEAN_ANOMALY>8.6374</MEAN_ANOMALY></meanElements><tleParameters><EPHEMERIS_TYPE>0</EPHEMERIS_TYPE><CLASSIFICATION_TYPE>U</CLASSIFICATION_TYPE><NORAD_CAT_ID>25418</NORAD_CAT_ID><ELEMENT_SET_NO>999</ELEMENT_SET_NO><REV_AT_EPOCH>34391</REV_AT_EPOCH><BSTAR>.13865E-2</BSTAR><MEAN_MOTION_DOT>.3911E-4</MEAN_MOTION_DOT><MEAN_MOTION_DDOT>0</MEAN_MOTION_DDOT></tleParameters></data></segment></body></omm>
<omm id="CCSDS_OMM_VERS" version="2.0">
<header><CREATION_DATE/><ORIGINATOR/></header><body><segment><metadata><OBJECT_NAME>ORBCOMM FM14 [-]</OBJECT_NAME><OBJECT_ID>1998-046G</OBJECT_ID><CENTER_NAME>EARTH</CENTER_NAME><REF_FRAME>TEME</REF_FRAME><TIME_SYSTEM>UTC</TIME_SYSTEM><MEAN_ELEMENT_THEORY>SGP4</MEAN_ELEMENT_THEORY></metadata><data><meanElements><EPOCH>2024-04-23T18:51:10.006272</EPOCH><MEAN_MOTION>14.35979758</MEAN_MOTION><ECCENTRICITY>.000285</ECCENTRICITY><INCLINATION>44.9976</INCLINATION><RA_OF_ASC_NODE>3.3248</RA_OF_ASC_NODE><ARG_OF_PERICENTER>342.5286</ARG_OF_PERICENTER><MEAN_ANOMALY>128.1290</MEAN_ANOMALY></meanElements><tleParameters><EPHEMERIS_TYPE>0</EPHEMERIS_TYPE><CLASSIFICATION_TYPE>U</CLASSIFICATION_TYPE><NORAD_CAT_ID>25419</NORAD_CAT_ID><ELEMENT_SET_NO>999</ELEMENT_SET_NO><REV_AT_EPOCH>34386</REV_AT_EPOCH><BSTAR>.13465E-2</BSTAR><MEAN_MOTION_DOT>.3807E-4</MEAN_MOTION_DOT><MEAN_MOTION_DDOT>0</MEAN_MOTION_DDOT></tleParameters></data></segment></body></omm>
<omm id="CCSDS_OMM_VERS" version="2.0">
<header><CREATION_DATE/><ORIGINATOR/></header><body><segment><metadata><OBJECT_NAME>ORBCOMM FM13 [+]</OBJECT_NAME><OBJECT_ID>1998-046H</OBJECT_ID><CENTER_NAME>EARTH</CENTER_NAME><REF_FRAME>TEME</REF_FRAME><TIME_SYSTEM>UTC</TIME_SYSTEM><MEAN_ELEMENT_THEORY>SGP4</MEAN_ELEMENT_THEORY></metadata><data><meanElements><EPOCH>2024-04-23T19:14:16.202688</EPOCH><MEAN_MOTION>14.35277692</MEAN_MOTION><ECCENTRICITY>.0004942</ECCENTRICITY><INCLINATION>44.9984</INCLINATION><RA_OF_ASC_NODE>8.0273</RA_OF_ASC_NODE><ARG_OF_PERICENTER>335.1894</ARG_OF_PERICENTER><MEAN_ANOMALY>24.8715</MEAN_ANOMALY></meanElements><tleParameters><EPHEMERIS_TYPE>0</EPHEMERIS_TYPE><CLASSIFICATION_TYPE>U</CLASSIFICATION_TYPE><NORAD_CAT_ID>25420</NORAD_CAT_ID><ELEMENT_SET_NO>999</ELEMENT_SET_NO><REV_AT_EPOCH>34293</REV_AT_EPOCH><BSTAR>.13039E-2</BSTAR><MEAN_MOTION_DOT>.3629E-4</MEAN_MOTION_DOT><MEAN_MOTION_DDOT>0</MEAN_MOTION_DDOT></tleParameters></data></segment></body></omm>
<omm id="CCSDS_OMM_VERS" version="2.0">
<header><CREATION_DATE/><ORIGINATOR/></header><body><segment><metadata><OBJECT_NAME>ORBCOMM FM21 [-]</OBJECT_NAME><OBJECT_ID>1998-053A</OBJECT_ID><CENTER_NAME>EARTH</CENTER_NAME><REF_FRAME>TEME</REF_FRAME><TIME_SYSTEM>UTC</TIME_SYSTEM><MEAN_ELEMENT_THEORY>SGP4</MEAN_ELEMENT_THEORY></metadata><data><meanElements><EPOCH>2024-04-23T21:22:34.904928</EPOCH><MEAN_MOTION>14.35219873</MEAN_MOTION><ECCENTRICITY>.0002571</ECCENTRICITY><INCLINATION>45.0070</INCLINATION><RA_OF_ASC_NODE>91.8999</RA_OF_ASC_NODE><ARG_OF_PERICENTER>297.1175</ARG_OF_PERICENTER><MEAN_ANOMALY>62.9410</MEAN_ANOMALY></meanElements><tleParameters><EPHEMERIS_TYPE>0</EPHEMERIS_TYPE><CLASSIFICATION_TYPE>U</CLASSIFICATION_TYPE><NORAD_CAT_ID>25475</NORAD_CAT_ID><ELEMENT_SET_NO>999</ELEMENT_SET_NO><REV_AT_EPOCH>33696</REV_AT_EPOCH><BSTAR>.12207E-2</BSTAR><MEAN_MOTION_DOT>.3384E-4</MEAN_MOTION_DOT><MEAN_MOTION_DDOT>0</MEAN_MOTION_DDOT></tleParameters></data></segment></body></omm>
<omm id="CCSDS_OMM_VERS" version="2.0">
<header><CREATION_DATE/><ORIGINATOR/></header><body><segment><metadata><OBJECT_NAME>ORBCOMM FM22 [-]</OBJECT_NAME><OBJECT_ID>1998-053B</OBJECT_ID><CENTER_NAME>EARTH</CENTER_NAME><REF_FRAME>TEME</REF_FRAME><TIME_SYSTEM>UTC</TIME_SYSTEM><MEAN_ELEMENT_THEORY>SGP4</MEAN_ELEMENT_THEORY></metadata><data><meanElements><EPOCH>2024-04-23T20:59:02.834304</EPOCH><MEAN_MOTION>14.35733836</MEAN_MOTION><ECCENTRICITY>.0004111</ECCENTRICITY><INCLINATION>45.0068</INCLINATION><RA_OF_ASC_NODE>89.3304</RA_OF_ASC_NODE><ARG_OF_PERICENTER>289.2701</ARG_OF_PERICENTER><MEAN_ANOMALY>70.7701</MEAN_ANOMALY></meanElements><tleParameters><EPHEMERIS_TYPE>0</EPHEMERIS_TYPE><CLASSIFICATION_TYPE>U</CLASSIFICATION_TYPE><NORAD_CAT_ID>25476</NORAD_CAT_ID><ELEMENT_SET_NO>999</ELEMENT_SET_NO><REV_AT_EPOCH>33695</REV_AT_EPOCH><BSTAR>.13209E-2</BSTAR><MEAN_MOTION_DOT>.3713E-4</MEAN_MOTION_DOT><MEAN_MOTION_DDOT>0</MEAN_MOTION_DDOT></tleParameters></data></segment></body></omm>

</ndm>
